[{"OBJECT_NAME":"STARLINK-31399","OBJECT_ID":"2024-064U","EPOCH":"2026-03-09T23:45:15.858432","MEAN_MOTION":15.27558367,"ECCENTRICITY":0.00023887,"INCLINATION":43.0024,"RA_OF_ASC_NODE":54.3007,"ARG_OF_PERICENTER":299.8339,"MEAN_ANOMALY":60.2275,"EPHEMERIS_TYPE":0,"CLASSIFICATION_TYPE":"U","NORAD_CAT_ID":59416,"ELEMENT_SET_NO":999,"REV_AT_EPOCH":10927,"BSTAR":-7.9740352e-5,"MEAN_MOTION_DOT":-2.455e-5,"MEAN_MOTION_DDOT":0},{"OBJECT_NAME":"NUSAT-50 (NANCY ROMAN)","OBJECT_ID":"2024-149AB","EPOCH":"2026-03-09T19:15:16.765632","MEAN_MOTION":15.29713355,"ECCENTRICITY":0.00025229,"INCLINATION":97.3817,"RA_OF_ASC_NODE":150.7693,"ARG_OF_PERICENTER":238.0469,"MEAN_ANOMALY":122.0527,"EPHEMERIS_TYPE":0,"CLASSIFICATION_TYPE":"U","NORAD_CAT_ID":60493,"ELEMENT_SET_NO":999,"REV_AT_EPOCH":8693,"BSTAR":0.0004225155,"MEAN_MOTION_DOT":0.00012094,"MEAN_MOTION_DDOT":0}]
